TDRS 3                  
1 19548U 88091B   23137.01785464 -.00000310  00000+0  00000+0 0  9997
2 19548  13.4682 348.7820 0036044 338.4931 224.6269  1.00278530114062
HST                     
1 20580U 90037B   23136.68688774  .00003577  00000+0  18691-3 0  9992
2 20580  28.4684 117.5629 0002535  42.4358 122.3271 15.13038839616687
TDRS 5                  
1 21639U 91054B   23137.44742562  .00000074  00000+0  00000+0 0  9999
2 21639  14.2093   2.0762 0027487 359.3290 226.8946  1.00268896116418
TDRS 6                  
1 22314U 93003B   23137.06129201 -.00000306  00000+0  00000+0 0  9992
2 22314  14.1500   5.3512 0011310 125.0312  80.1619  1.00266315111070
TDRS 7                  
1 23613U 95035B   23136.83291575 -.00000209  00000+0  00000+0 0  9992
2 23613  13.8475 356.0795 0029441  59.9720 202.6654  1.00267116101946
ISS (ZARYA)             
1 25544U 98067A   23137.43602414  .00011503  00000+0  20718-3 0  9990
2 25544  51.6380 120.9560 0006446 355.7472   4.3461 15.50269337397021
LANDSAT 7               
1 25682U 99020A   23137.51988866  .00000448  00000+0  10224-3 0  9997
2 25682  97.9316 177.1683 0001699 103.0383  33.1441 14.60086048281303
TERRA                   
1 25994U 99068A   23137.48541913  .00000498  00000+0  11505-3 0  9997
2 25994  98.0954 206.6277 0002442 133.7837 341.9507 14.59218654245308
TDRS 8                  
1 26388U 00034A   23136.87741279 -.00000238  00000+0  00000+0 0  9996
2 26388  10.8971  40.2209 0023326 345.7805 253.3103  1.00266398 83878
TIMED                   
1 26998U 01055B   23137.08697513  .00001284  00000+0  13812-3 0  9992
2 26998  74.0714 334.5772 0000952 171.4258 188.6940 14.89672522162803
TDRS 9                  
1 27389U 02011A   23136.88428469 -.00000062  00000+0  00000+0 0  9994
2 27389   9.7457  57.4344 0005611  46.6363 184.9946  0.98979516 79125
AQUA                    
1 27424U 02022A   23137.47581257  .00000896  00000+0  20490-3 0  9990
2 27424  98.2858  82.0008 0000771  76.4299  36.6430 14.58041400118886
TDRS 10                 
1 27566U 02055A   23136.50094331  .00000083  00000+0  00000+0 0  9997
2 27566   8.8181  48.0176 0009000 343.3919 211.6909  1.00270124 74928
SORCE                   
1 27651U 03004A   23136.51720527  .00002266  00000+0  23334-3 0  9995
2 27651  39.9928 155.7655 0021358 295.5841  64.2742 14.91821589102781
AURA                    
1 28376U 04026A   23137.42544737  .00000888  00000+0  20573-3 0  9993
2 28376  98.2089  81.5162 0001126  90.9307 269.2020 14.57452301  1908
SWIFT                   
1 28485U 04047A   23137.27749079  .00005475  00000+0  29446-3 0  9991
2 28485  20.5558 121.3833 0009640 221.2866 138.6840 15.10514870 14086
THEMIS A                
1 30580U 07004A   23134.91087694 -.00000414  00000+0 -14244-3 0  9992
2 30580  11.4645 306.4859 8334245 238.3376  30.3914  0.87833698 31359
THEMIS D                
1 30797U 07004D   23136.01738681 -.00000349  00000+0  00000+0 0  9991
2 30797   7.7646 293.7697 8287731 254.4963   7.3872  0.87773062 31157
THEMIS E                
1 30798U 07004E   23134.91235875 -.00000455  00000+0  00000+0 0  9994
2 30798   8.9330 312.4715 8290160 237.4338  36.2087  0.87831860 55996
AIM                     
1 31304U 07015A   23136.39257837  .00019041  00000+0  68378-3 0  9992
2 31304  97.8699  75.3103 0001522 330.4783  29.6369 15.28720911881826
FGRST (GLAST)           
1 33053U 08029A   23136.86182980  .00002921  00000+0  14049-3 0  9994
2 33053  25.5835  51.3792 0011935  88.0139 272.1764 15.13918290824461
WISE                    
1 36119U 09071A   23136.52637030  .00014157  00000+0  34336-3 0  9997
2 36119  97.1981 169.8508 0002979 141.9833 218.1625 15.41150940746664
TDRS 11                 
1 39070U 13004A   23136.85877535  .00000071  00000+0  00000+0 0  9996
2 39070   2.7220 357.0017 0007139  52.1838 320.0077  1.00266044 35396
TDRS 12                 
1 39504U 14004A   23137.50398569 -.00000277  00000+0  00000+0 0  9996
2 39504   3.6353 354.0090 0005084 125.5264 255.9401  1.00268933 34157
GPM-CORE                
1 39574U 14009C   23136.85919871  .00013853  00000+0  19788-3 0  9990
2 39574  64.9923 133.1987 0013445 270.0072  89.9534 15.56415523523487
MMS 1                   
1 40482U 15011A   23135.92318565 -.00000102  00000+0  00000+0 0  9991
2 40482  29.0383  67.5995 9093660  92.7343 357.4243  0.28563419 14244
MMS 2                   
1 40483U 15011B   23136.56708779 -.00000147  00000+0  00000+0 0  9992
2 40483  29.0321  67.5564 9095421  92.7837  63.6603  0.28582198 14313
MMS 3                   
1 40484U 15011C   23136.93985231 -.00000187  00000+0  00000+0 0  9998
2 40484  29.0457  67.4983 9094607  92.8297 102.0066  0.28585895 13995
MMS 4                   
1 40485U 15011D   23135.94401898 -.00000103  00000+0  00000+0 0  9999
2 40485  29.0336  67.5900 9094886  92.7476 359.5655  0.28563790 14207
TDRS 13                 
1 42915U 17047A   23137.39296990 -.00000107  00000+0  00000+0 0  9990
2 42915   4.0395 337.4712 0018588 111.2752 276.1324  1.00272669 21089
JPSS-1                  
1 43013U 17073A   23137.46170576  .00000060  00000+0  49443-4 0  9994
2 43013  98.7515  76.3553 0001129 109.0173 251.1125 14.19549460284612
